[{"OBJECT_NAME":"STARLINK-1270","OBJECT_ID":"2020-012BM","EPOCH":"2026-03-09T23:16:53.813856","MEAN_MOTION":15.47116373,"ECCENTRICITY":0.00038015,"INCLINATION":53.0511,"RA_OF_ASC_NODE":346.2195,"ARG_OF_PERICENTER":102.222,"MEAN_ANOMALY":257.9213,"EPHEMERIS_TYPE":0,"CLASSIFICATION_TYPE":"U","NORAD_CAT_ID":45237,"ELEMENT_SET_NO":999,"REV_AT_EPOCH":33571,"BSTAR":0.0019102409,"MEAN_MOTION_DOT":0.00099262,"MEAN_MOTION_DDOT":0},{"OBJECT_NAME":"STARLINK-36717","OBJECT_ID":"2026-026Y","EPOCH":"2026-03-09T22:00:01.999584","MEAN_MOTION":15.49158128,"ECCENTRICITY":0.00015847,"INCLINATION":97.2845,"RA_OF_ASC_NODE":123.5271,"ARG_OF_PERICENTER":85.907,"MEAN_ANOMALY":181.2155,"EPHEMERIS_TYPE":0,"CLASSIFICATION_TYPE":"U","NORAD_CAT_ID":67743,"ELEMENT_SET_NO":999,"REV_AT_EPOCH":548,"BSTAR":0.0013003436,"MEAN_MOTION_DOT":0.00071198,"MEAN_MOTION_DDOT":0}]
